start=new Date('2022-07-09T00:00:00.000Z').valueOf();
sats=[{"PERIOD":"95.434","EPHEMERIS_TYPE":"0","GP_ID":"207696011","MEAN_MOTION_DOT":"-0.00058079","CLASSIFICATION_TYPE":"U","RA_OF_ASC_NODE":"263.5788","EPOCH":"2022-07-08T22:00:01.999584","ELEMENT_SET_NO":"999","MEAN_ANOMALY":"113.5688","FILE":"3510087","OBJECT_TYPE":"PAYLOAD","TLE_LINE2":"2 51862  53.2162 263.5788 0001682  48.6798 113.5688 15.08896465  1309","ECCENTRICITY":"0.00016820","MEAN_MOTION_DDOT":"0.0000000000000","INCLINATION":"53.2162","DECAY_DATE":null,"PERIAPSIS":"538.409","CENTER_NAME":"EARTH","REF_FRAME":"TEME","ARG_OF_PERICENTER":"48.6798","LAUNCH_DATE":"2022-03-03","COUNTRY_CODE":"US","NORAD_CAT_ID":"51862","RCS_SIZE":"LARGE","REV_AT_EPOCH":"130","SEMIMAJOR_AXIS":"6917.708","TIME_SYSTEM":"UTC","OBJECT_ID":"2022-022L","TLE_LINE1":"1 51862U 22022L   22189.91668981 -.00058079  00000-0 -36550-2 0  9992","SITE":"AFETR","MEAN_ELEMENT_THEORY":"SGP4","BSTAR":"-0.00365500000000","OBJECT_NAME":"STARLINK-3508","MEAN_MOTION":"15.08896465","APOAPSIS":"540.736"},{"TLE_LINE2":"2 51863  53.2154 263.5991 0001771  48.5957 213.6578 15.08896452  1308","OBJECT_TYPE":"PAYLOAD","INCLINATION":"53.2154","MEAN_MOTION_DDOT":"0.0000000000000","ECCENTRICITY":"0.00017710","CENTER_NAME":"EARTH","PERIAPSIS":"538.348","DECAY_DATE":null,"REF_FRAME":"TEME","EPHEMERIS_TYPE":"0","PERIOD":"95.434","EPOCH":"2022-07-08T22:00:01.999584","CLASSIFICATION_TYPE":"U","RA_OF_ASC_NODE":"263.5991","MEAN_MOTION_DOT":"-0.00055609","GP_ID":"207697263","MEAN_ANOMALY":"213.6578","ELEMENT_SET_NO":"999","FILE":"3510087","SITE":"AFETR","TLE_LINE1":"1 51863U 22022M   22189.91668981 -.00055609  00000-0 -34976-2 0  9999","OBJECT_ID":"2022-022M","BSTAR":"-0.00349760000000","MEAN_ELEMENT_THEORY":"SGP4","OBJECT_NAME":"STARLINK-3555","APOAPSIS":"540.798","MEAN_MOTION":"15.08896452","COUNTRY_CODE":"US","LAUNCH_DATE":"2022-03-03","ARG_OF_PERICENTER":"48.5957","REV_AT_EPOCH":"130","NORAD_CAT_ID":"51863","RCS_SIZE":"LARGE","SEMIMAJOR_AXIS":"6917.708","TIME_SYSTEM":"UTC"},{"OBJECT_TYPE":"PAYLOAD","TLE_LINE2":"2 51864  53.2148 263.5877 0001671  54.5049 147.7773 15.08874016  1309","MEAN_MOTION_DDOT":"0.0000000000000","ECCENTRICITY":"0.00016710","INCLINATION":"53.2148","DECAY_DATE":null,"CENTER_NAME":"EARTH","PERIAPSIS":"538.485","REF_FRAME":"TEME","PERIOD":"95.435","EPHEMERIS_TYPE":"0","RA_OF_ASC_NODE":"263.5877","CLASSIFICATION_TYPE":"U","GP_ID":"207697013","MEAN_MOTION_DOT":"-0.00027803","EPOCH":"2022-07-08T22:00:01.999584","MEAN_ANOMALY":"147.7773","ELEMENT_SET_NO":"999","FILE":"3510087","OBJECT_ID":"2022-022N","TLE_LINE1":"1 51864U 22022N   22189.91668981 -.00027803  00000-0 -17339-2 0  9999","SITE":"AFETR","MEAN_ELEMENT_THEORY":"SGP4","BSTAR":"-0.00173390000000","OBJECT_NAME":"STARLINK-3548","MEAN_MOTION":"15.08874016","APOAPSIS":"540.797","LAUNCH_DATE":"2022-03-03","ARG_OF_PERICENTER":"54.5049","COUNTRY_CODE":"US","RCS_SIZE":"LARGE","NORAD_CAT_ID":"51864","REV_AT_EPOCH":"130","SEMIMAJOR_AXIS":"6917.776","TIME_SYSTEM":"UTC"},{"OBJECT_ID":"2022-022P","TLE_LINE1":"1 51865U 22022P   22189.91668981 -.00036778  00000-0 -23019-2 0  9993","SITE":"AFETR","MEAN_ELEMENT_THEORY":"SGP4","BSTAR":"-0.00230190000000","OBJECT_NAME":"STARLINK-3503","MEAN_MOTION":"15.08880916","APOAPSIS":"540.852","ARG_OF_PERICENTER":"50.5433","LAUNCH_DATE":"2022-03-03","COUNTRY_CODE":"US","NORAD_CAT_ID":"51865","RCS_SIZE":"LARGE","REV_AT_EPOCH":"130","TIME_SYSTEM":"UTC","SEMIMAJOR_AXIS":"6917.755","OBJECT_TYPE":"PAYLOAD","TLE_LINE2":"2 51865  53.2161 263.6020 0001781  50.5433 251.7173 15.08880916  1307","ECCENTRICITY":"0.00017810","MEAN_MOTION_DDOT":"0.0000000000000","INCLINATION":"53.2161","DECAY_DATE":null,"PERIAPSIS":"538.388","CENTER_NAME":"EARTH","REF_FRAME":"TEME","PERIOD":"95.435","EPHEMERIS_TYPE":"0","GP_ID":"207696262","MEAN_MOTION_DOT":"-0.00036778","CLASSIFICATION_TYPE":"U","RA_OF_ASC_NODE":"263.6020","EPOCH":"2022-07-08T22:00:01.999584","MEAN_ANOMALY":"251.7173","ELEMENT_SET_NO":"999","FILE":"3510087"},{"MEAN_ANOMALY":"198.5666","ELEMENT_SET_NO":"999","FILE":"3510087","EPHEMERIS_TYPE":"0","PERIOD":"95.435","EPOCH":"2022-07-08T22:00:01.999584","CLASSIFICATION_TYPE":"U","RA_OF_ASC_NODE":"263.5949","GP_ID":"207696512","MEAN_MOTION_DOT":"-0.00023067","CENTER_NAME":"EARTH","PERIAPSIS":"538.446","DECAY_DATE":null,"REF_FRAME":"TEME","TLE_LINE2":"2 51866  53.2144 263.5949 0001715  43.6893 198.5666 15.08877110  1305","OBJECT_TYPE":"PAYLOAD","INCLINATION":"53.2144","MEAN_MOTION_DDOT":"0.0000000000000","ECCENTRICITY":"0.00017150","REV_AT_EPOCH":"130","NORAD_CAT_ID":"51866","RCS_SIZE":"LARGE","TIME_SYSTEM":"UTC","SEMIMAJOR_AXIS":"6917.767","COUNTRY_CODE":"US","LAUNCH_DATE":"2022-03-03","ARG_OF_PERICENTER":"43.6893","OBJECT_NAME":"STARLINK-3553","APOAPSIS":"540.818","MEAN_MOTION":"15.08877110","SITE":"AFETR","TLE_LINE1":"1 51866U 22022Q   22189.91668981 -.00023067  00000-0 -14344-2 0  9992","OBJECT_ID":"2022-022Q","BSTAR":"-0.00143440000000","MEAN_ELEMENT_THEORY":"SGP4"},{"DECAY_DATE":null,"PERIAPSIS":"538.359","CENTER_NAME":"EARTH","REF_FRAME":"TEME","OBJECT_TYPE":"PAYLOAD","TLE_LINE2":"2 51867  53.2173 263.6067 0001777  43.9968 278.2515 15.08891247  1300","ECCENTRICITY":"0.00017770","MEAN_MOTION_DDOT":"0.0000000000000","INCLINATION":"53.2173","ELEMENT_SET_NO":"999","MEAN_ANOMALY":"278.2515","FILE":"3510087","PERIOD":"95.434","EPHEMERIS_TYPE":"0","GP_ID":"207696763","MEAN_MOTION_DOT":"-0.00035977","RA_OF_ASC_NODE":"263.6067","CLASSIFICATION_TYPE":"U","EPOCH":"2022-07-08T22:00:01.999584","OBJECT_NAME":"STARLINK-3590","MEAN_MOTION":"15.08891247","APOAPSIS":"540.818","OBJECT_ID":"2022-022R","TLE_LINE1":"1 51867U 22022R   22189.91668981 -.00035977  00000-0 -22505-2 0  9994","SITE":"AFETR","MEAN_ELEMENT_THEORY":"SGP4","BSTAR":"-0.00225050000000","RCS_SIZE":"LARGE","NORAD_CAT_ID":"51867","REV_AT_EPOCH":"130","SEMIMAJOR_AXIS":"6917.724","TIME_SYSTEM":"UTC","ARG_OF_PERICENTER":"43.9968","LAUNCH_DATE":"2022-03-03","COUNTRY_CODE":"US"},{"TIME_SYSTEM":"UTC","SEMIMAJOR_AXIS":"6917.724","NORAD_CAT_ID":"51868","RCS_SIZE":"LARGE","REV_AT_EPOCH":"130","LAUNCH_DATE":"2022-03-03","ARG_OF_PERICENTER":"42.8005","COUNTRY_CODE":"US","MEAN_MOTION":"15.08891205","APOAPSIS":"540.840","OBJECT_NAME":"STARLINK-3578","MEAN_ELEMENT_THEORY":"SGP4","BSTAR":"-0.00299540000000","OBJECT_ID":"2022-022S","TLE_LINE1":"1 51868U 22022S   22189.91668981 -.00047712  00000-0 -29954-2 0  9990","SITE":"AFETR","FILE":"3510087","MEAN_ANOMALY":"239.4517","ELEMENT_SET_NO":"999","RA_OF_ASC_NODE":"263.6018","CLASSIFICATION_TYPE":"U","MEAN_MOTION_DOT":"-0.00047712","GP_ID":"207697514","EPOCH":"2022-07-08T22:00:01.999584","PERIOD":"95.434","EPHEMERIS_TYPE":"0","REF_FRAME":"TEME","DECAY_DATE":null,"CENTER_NAME":"EARTH","PERIAPSIS":"538.337","MEAN_MOTION_DDOT":"0.0000000000000","ECCENTRICITY":"0.00018090","INCLINATION":"53.2160","OBJECT_TYPE":"PAYLOAD","TLE_LINE2":"2 51868  53.2160 263.6018 0001809  42.8005 239.4517 15.08891205  1304"},{"SITE":"AFETR","TLE_LINE1":"1 51869U 22022T   22189.91668981 -.00028819  00000-0 -17980-2 0  9994","OBJECT_ID":"2022-022T","BSTAR":"-0.00179800000000","MEAN_ELEMENT_THEORY":"SGP4","OBJECT_NAME":"STARLINK-3588","APOAPSIS":"540.844","MEAN_MOTION":"15.08877547","COUNTRY_CODE":"US","LAUNCH_DATE":"2022-03-03","ARG_OF_PERICENTER":"48.2982","REV_AT_EPOCH":"130","RCS_SIZE":"LARGE","NORAD_CAT_ID":"51869","TIME_SYSTEM":"UTC","SEMIMAJOR_AXIS":"6917.766","TLE_LINE2":"2 51869  53.2189 263.5966 0001754  48.2982 333.9574 15.08877547  1306","OBJECT_TYPE":"PAYLOAD","INCLINATION":"53.2189","MEAN_MOTION_DDOT":"0.0000000000000","ECCENTRICITY":"0.00017540","CENTER_NAME":"EARTH","PERIAPSIS":"538.417","DECAY_DATE":null,"REF_FRAME":"TEME","EPHEMERIS_TYPE":"0","PERIOD":"95.435","EPOCH":"2022-07-08T22:00:01.999584","RA_OF_ASC_NODE":"263.5966","CLASSIFICATION_TYPE":"U","MEAN_MOTION_DOT":"-0.00028819","GP_ID":"207695762","MEAN_ANOMALY":"333.9574","ELEMENT_SET_NO":"999","FILE":"3510087"},{"OBJECT_NAME":"STARLINK-3591","APOAPSIS":"540.772","MEAN_MOTION":"15.08902847","SITE":"AFETR","OBJECT_ID":"2022-022U","TLE_LINE1":"1 51870U 22022U   22189.91668981 -.00054138  00000-0 -34033-2 0  9997","BSTAR":"-0.00340330000000","MEAN_ELEMENT_THEORY":"SGP4","REV_AT_EPOCH":"130","NORAD_CAT_ID":"51870","RCS_SIZE":"LARGE","TIME_SYSTEM":"UTC","SEMIMAJOR_AXIS":"6917.688","COUNTRY_CODE":"US","LAUNCH_DATE":"2022-03-03","ARG_OF_PERICENTER":"43.6372","CENTER_NAME":"EARTH","PERIAPSIS":"538.335","DECAY_DATE":null,"REF_FRAME":"TEME","TLE_LINE2":"2 51870  53.2173 263.6062 0001761  43.6372 298.5889 15.08902847  1306","OBJECT_TYPE":"PAYLOAD","INCLINATION":"53.2173","MEAN_MOTION_DDOT":"0.0000000000000","ECCENTRICITY":"0.00017610","MEAN_ANOMALY":"298.5889","ELEMENT_SET_NO":"999","FILE":"3510087","EPHEMERIS_TYPE":"0","PERIOD":"95.434","EPOCH":"2022-07-08T22:00:01.999584","CLASSIFICATION_TYPE":"U","RA_OF_ASC_NODE":"263.6062","MEAN_MOTION_DOT":"-0.00054138","GP_ID":"207696012"},{"NORAD_CAT_ID":"51871","RCS_SIZE":"LARGE","REV_AT_EPOCH":"130","SEMIMAJOR_AXIS":"6917.770","TIME_SYSTEM":"UTC","LAUNCH_DATE":"2022-03-03","ARG_OF_PERICENTER":"39.2648","COUNTRY_CODE":"US","OBJECT_NAME":"STARLINK-3567","MEAN_MOTION":"15.08876180","APOAPSIS":"540.996","OBJECT_ID":"2022-022V","TLE_LINE1":"1 51871U 22022V   22189.91668981 -.00021215  00000-0 -13174-2 0  9991","SITE":"AFETR","MEAN_ELEMENT_THEORY":"SGP4","BSTAR":"-0.00131740000000","ELEMENT_SET_NO":"999","MEAN_ANOMALY":"2.9800","FILE":"3510087","PERIOD":"95.435","EPHEMERIS_TYPE":"0","CLASSIFICATION_TYPE":"U","RA_OF_ASC_NODE":"263.5945","MEAN_MOTION_DOT":"-0.00021215","GP_ID":"207697264","EPOCH":"2022-07-08T22:00:01.999584","DECAY_DATE":null,"CENTER_NAME":"EARTH","PERIAPSIS":"538.273","REF_FRAME":"TEME","OBJECT_TYPE":"PAYLOAD","TLE_LINE2":"2 51871  53.2191 263.5945 0001968  39.2648   2.9800 15.08876180  1302","MEAN_MOTION_DDOT":"0.0000000000000","ECCENTRICITY":"0.00019680","INCLINATION":"53.2191"}];
